[{"OBJECT_NAME":"STARLINK-2185","OBJECT_ID":"2021-017AX","EPOCH":"2026-03-09T15:30:18.045216","MEAN_MOTION":15.31049903,"ECCENTRICITY":0.0001195,"INCLINATION":53.1622,"RA_OF_ASC_NODE":204.7582,"ARG_OF_PERICENTER":79.3515,"MEAN_ANOMALY":280.7621,"EPHEMERIS_TYPE":0,"CLASSIFICATION_TYPE":"U","NORAD_CAT_ID":47767,"ELEMENT_SET_NO":999,"REV_AT_EPOCH":27787,"BSTAR":0.00052136,"MEAN_MOTION_DOT":0.00015524,"MEAN_MOTION_DDOT":0},{"OBJECT_NAME":"COSMOS 1328","OBJECT_ID":"1981-117A","EPOCH":"2026-03-09T17:51:53.113536","MEAN_MOTION":15.33902077,"ECCENTRICITY":0.00108717,"INCLINATION":82.4939,"RA_OF_ASC_NODE":350.453,"ARG_OF_PERICENTER":167.9725,"MEAN_ANOMALY":192.1779,"EPHEMERIS_TYPE":0,"CLASSIFICATION_TYPE":"U","NORAD_CAT_ID":12987,"ELEMENT_SET_NO":999,"REV_AT_EPOCH":41406,"BSTAR":0.00040501644,"MEAN_MOTION_DOT":0.00013342,"MEAN_MOTION_DDOT":0}]
